{"type": "FeatureCollection", "features": [ {"type": "Feature", "properties": {"norad_id": 66629, "name": "STARLINK-35956", "group": "last-30-days", "lat": 32.81280788909966, "lon": -40.86887984007126, "alt_km": 414.10779545085734, "timestamp": "2025-12-16T17:51:09.661102+00:00", "meta": {"OBJECT_NAME": "STARLINK-35956", "OBJECT_ID": "2025-271N", "EPOCH": "2025-12-15T22:00:01.999584", "MEAN_MOTION": 15.49258029, "ECCENTRICITY": 8.348e-05, "INCLINATION": 53.159, "RA_OF_ASC_NODE": 171.9963, "ARG_OF_PERICENTER": 77.628, "MEAN_ANOMALY": 123.4314, "EPHEMERIS_TYPE": 0, "CLASSIFICATION_TYPE": "U", "NORAD_CAT_ID": 66629, "ELEMENT_SET_NO": 999, "REV_AT_EPOCH": 475, "BSTAR": 0.0014290423, "MEAN_MOTION_DOT": 0.000797, "MEAN_MOTION_DDOT": 0}, "tle": {"line1": "1 66629U 25271N   25349.91668981  .00079700  00000+0  14290-2 0  9997", "line2": "2 66629  53.1590 171.9963 0000834  77.6280 123.4314 15.49258029  4754"}}, "geometry": {"type": "Point", "coordinates": [-40.86887984007126, 32.81280788909966]}}, {"type": "Feature", "properties": {"norad_id": 66630, "name": "STARLINK-35949", "group": "last-30-days", "lat": 31.460750332717975, "lon": -39.2713068294804, "alt_km": 414.4208727961359, "timestamp": "2025-12-16T17:51:09.661112+00:00", "meta": {"OBJECT_NAME": "STARLINK-35949", "OBJECT_ID": "2025-271P", "EPOCH": "2025-12-15T22:00:01.999584", "MEAN_MOTION": 15.49260419, "ECCENTRICITY": 0.0001046, "INCLINATION": 53.159, "RA_OF_ASC_NODE": 171.9909, "ARG_OF_PERICENTER": 64.9319, "MEAN_ANOMALY": 138.0392, "EPHEMERIS_TYPE": 0, "CLASSIFICATION_TYPE": "U", "NORAD_CAT_ID": 66630, "ELEMENT_SET_NO": 999, "REV_AT_EPOCH": 475, "BSTAR": 0.0013660281, "MEAN_MOTION_DOT": 0.00076138, "MEAN_MOTION_DDOT": 0}, "tle": {"line1": "1 66630U 25271P   25349.91668981  .00076138  00000+0  13660-2 0  9991", "line2": "2 66630  53.1590 171.9909 0001046  64.9319 138.0392 15.49260419  4758"}}, "geometry": {"type": "Point", "coordinates": [-39.2713068294804, 31.460750332717975]}}, {"type": "Feature", "properties": {"norad_id": 66631, "name": "STARLINK-35965", "group": "last-30-days", "lat": 30.081439546055048, "lon": -37.708556506314146, "alt_km": 414.9091394460547, "timestamp": "2025-12-16T17:51:09.661122+00:00", "meta": {"OBJECT_NAME": "STARLINK-35965", "OBJECT_ID": "2025-271Q", "EPOCH": "2025-12-15T22:00:01.999584", "MEAN_MOTION": 15.49257918, "ECCENTRICITY": 9.731e-05, "INCLINATION": 53.159, "RA_OF_ASC_NODE": 171.9879, "ARG_OF_PERICENTER": 43.9214, "MEAN_ANOMALY": 160.9736, "EPHEMERIS_TYPE": 0, "CLASSIFICATION_TYPE": "U", "NORAD_CAT_ID": 66631, "ELEMENT_SET_NO": 999, "REV_AT_EPOCH": 475, "BSTAR": 0.0014267995, "MEAN_MOTION_DOT": 0.00079573, "MEAN_MOTION_DDOT": 0}, "tle": {"line1": "1 66631U 25271Q   25349.91668981  .00079573  00000+0  14268-2 0  9993", "line2": "2 66631  53.1590 171.9879 0000973  43.9214 160.9736 15.49257918  4750"}}, "geometry": {"type": "Point", "coordinates": [-37.708556506314146, 30.081439546055048]}}, {"type": "Feature", "properties": {"norad_id": 66632, "name": "STARLINK-35973", "group": "last-30-days", "lat": 50.936843424336416, "lon": -124.3559566329195, "alt_km": 439.25675944805243, "timestamp": "2025-12-16T17:51:09.661133+00:00", "meta": {"OBJECT_NAME": "STARLINK-35973", "OBJECT_ID": "2025-271R", "EPOCH": "2025-12-15T22:00:01.999584", "MEAN_MOTION": 15.39561952, "ECCENTRICITY": 0.00014002, "INCLINATION": 53.1591, "RA_OF_ASC_NODE": 172.0594, "ARG_OF_PERICENTER": 85.8152, "MEAN_ANOMALY": 82.9379, "EPHEMERIS_TYPE": 0, "CLASSIFICATION_TYPE": "U", "NORAD_CAT_ID": 66632, "ELEMENT_SET_NO": 999, "REV_AT_EPOCH": 469, "BSTAR": 0.0018696989, "MEAN_MOTION_DOT": 0.00074982, "MEAN_MOTION_DDOT": 0}, "tle": {"line1": "1 66632U 25271R   25349.91668981  .00074982  00000+0  18697-2 0  9993", "line2": "2 66632  53.1591 172.0594 0001400  85.8152  82.9379 15.39561952  4694"}}, "geometry": {"type": "Point", "coordinates": [-124.3559566329195, 50.936843424336416]}}, {"type": "Feature", "properties": {"norad_id": 66633, "name": "STARLINK-35948", "group": "last-30-days", "lat": 51.468183185409124, "lon": -121.54271469576032, "alt_km": 439.38263681474746, "timestamp": "2025-12-16T17:51:09.661173+00:00", "meta": {"OBJECT_NAME": "STARLINK-35948", "OBJECT_ID": "2025-271S", "EPOCH": "2025-12-15T22:00:01.999584", "MEAN_MOTION": 15.39560694, "ECCENTRICITY": 0.00011087, "INCLINATION": 53.1591, "RA_OF_ASC_NODE": 172.0545, "ARG_OF_PERICENTER": 84.6178, "MEAN_ANOMALY": 85.9826, "EPHEMERIS_TYPE": 0, "CLASSIFICATION_TYPE": "U", "NORAD_CAT_ID": 66633, "ELEMENT_SET_NO": 999, "REV_AT_EPOCH": 475, "BSTAR": 0.0018293175, "MEAN_MOTION_DOT": 0.00073335, "MEAN_MOTION_DDOT": 0}, "tle": {"line1": "1 66633U 25271S   25349.91668981  .00073335  00000+0  18293-2 0  9997", "line2": "2 66633  53.1591 172.0545 0001108  84.6178  85.9826 15.39560694  4750"}}, "geometry": {"type": "Point", "coordinates": [-121.54271469576032, 51.468183185409124]}}, {"type": "Feature", "properties": {"norad_id": 66634, "name": "STARLINK-35967", "group": "last-30-days", "lat": 51.07224818635249, "lon": -80.05488572009804, "alt_km": 442.22353286667385, "timestamp": "2025-12-16T17:51:09.661184+00:00", "meta": {"OBJECT_NAME": "STARLINK-35967", "OBJECT_ID": "2025-271T", "EPOCH": "2025-12-15T22:00:01.999584", "MEAN_MOTION": 15.43039979, "ECCENTRICITY": 0.00013678, "INCLINATION": 53.1596, "RA_OF_ASC_NODE": 172.0102, "ARG_OF_PERICENTER": 88.535, "MEAN_ANOMALY": 104.0974, "EPHEMERIS_TYPE": 0, "CLASSIFICATION_TYPE": "U", "NORAD_CAT_ID": 66634, "ELEMENT_SET_NO": 999, "REV_AT_EPOCH": 468, "BSTAR": -0.063047949, "MEAN_MOTION_DOT": -0.02500155, "MEAN_MOTION_DDOT": 0}, "tle": {"line1": "1 66634U 25271T   25349.91668981 -.02500155  00000+0 -63048-1 0  9994", "line2": "2 66634  53.1596 172.0102 0001367  88.5350 104.0974 15.43039979  4688"}}, "geometry": {"type": "Point", "coordinates": [-80.05488572009804, 51.07224818635249]}}, {"type": "Feature", "properties": {"norad_id": 66635, "name": "STARLINK-35955", "group": "last-30-days", "lat": 29.1103683343536, "lon": -36.64813011113552, "alt_km": 426.54214899620183, "timestamp": "2025-12-16T17:51:09.661196+00:00", "meta": {"OBJECT_NAME": "STARLINK-35955", "OBJECT_ID": "2025-271U", "EPOCH": "2025-12-15T22:00:01.999584", "MEAN_MOTION": 15.4904059, "ECCENTRICITY": 8.807e-05, "INCLINATION": 53.159, "RA_OF_ASC_NODE": 171.9709, "ARG_OF_PERICENTER": 46.9243, "MEAN_ANOMALY": 165.5785, "EPHEMERIS_TYPE": 0, "CLASSIFICATION_TYPE": "U", "NORAD_CAT_ID": 66635, "ELEMENT_SET_NO": 999, "REV_AT_EPOCH": 475, "BSTAR": -0.041636684, "MEAN_MOTION_DOT": -0.02043444, "MEAN_MOTION_DDOT": 0}, "tle": {"line1": "1 66635U 25271U   25349.91668981 -.02043444  00000+0 -41637-1 0  9998", "line2": "2 66635  53.1590 171.9709 0000880  46.9243 165.5785 15.49040590  4759"}}, "geometry": {"type": "Point", "coordinates": [-36.64813011113552, 29.1103683343536]}}, {"type": "Feature", "properties": {"norad_id": 66636, "name": "STARLINK-35968", "group": "last-30-days", "lat": 39.13498881536237, "lon": -49.53838312284679, "alt_km": 434.59226605943786, "timestamp": "2025-12-16T17:51:09.661209+00:00", "meta": {"OBJECT_NAME": "STARLINK-35968", "OBJECT_ID": "2025-271V", "EPOCH": "2025-12-15T22:00:01.999584", "MEAN_MOTION": 15.45429038, "ECCENTRICITY": 0.00014213, "INCLINATION": 53.1587, "RA_OF_ASC_NODE": 171.9783, "ARG_OF_PERICENTER": 80.3354, "MEAN_ANOMALY": 128.1895, "EPHEMERIS_TYPE": 0, "CLASSIFICATION_TYPE": "U", "NORAD_CAT_ID": 66636, "ELEMENT_SET_NO": 999, "REV_AT_EPOCH": 475, "BSTAR": -0.045926283, "MEAN_MOTION_DOT": -0.01992679, "MEAN_MOTION_DDOT": 0}, "tle": {"line1": "1 66636U 25271V   25349.91668981 -.01992679  00000+0 -45926-1 0  9996", "line2": "2 66636  53.1587 171.9783 0001421  80.3354 128.1895 15.45429038  4756"}}, "geometry": {"type": "Point", "coordinates": [-49.53838312284679, 39.13498881536237]}}, {"type": "Feature", "properties": {"norad_id": 66637, "name": "STARLINK-35953", "group": "last-30-days", "lat": 21.51459748713402, "lon": -29.184280551893664, "alt_km": 416.51674450796054, "timestamp": "2025-12-16T17:51:09.661221+00:00", "meta": {"OBJECT_NAME": "STARLINK-35953", "OBJECT_ID": "2025-271W", "EPOCH": "2025-12-15T22:00:01.999584", "MEAN_MOTION": 15.49300512, "ECCENTRICITY": 9.931e-05, "INCLINATION": 53.159, "RA_OF_ASC_NODE": 171.9629, "ARG_OF_PERICENTER": 44.7307, "MEAN_ANOMALY": 171.6474, "EPHEMERIS_TYPE": 0, "CLASSIFICATION_TYPE": "U", "NORAD_CAT_ID": 66637, "ELEMENT_SET_NO": 999, "REV_AT_EPOCH": 475, "BSTAR": 0.00059575825, "MEAN_MOTION_DOT": 0.00032815, "MEAN_MOTION_DDOT": 0}, "tle": {"line1": "1 66637U 25271W   25349.91668981  .00032815  00000+0  59576-3 0  9999", "line2": "2 66637  53.1590 171.9629 0000993  44.7307 171.6474 15.49300512  4750"}}, "geometry": {"type": "Point", "coordinates": [-29.184280551893664, 21.51459748713402]}}, {"type": "Feature", "properties": {"norad_id": 66638, "name": "STARLINK-35972", "group": "last-30-days", "lat": 20.042990013223832, "lon": -27.871259347362393, "alt_km": 416.54944185383465, "timestamp": "2025-12-16T17:51:09.661231+00:00", "meta": {"OBJECT_NAME": "STARLINK-35972", "OBJECT_ID": "2025-271X", "EPOCH": "2025-12-15T22:00:01.999584", "MEAN_MOTION": 15.49255832, "ECCENTRICITY": 8.536e-05, "INCLINATION": 53.1589, "RA_OF_ASC_NODE": 171.9592, "ARG_OF_PERICENTER": 55.1081, "MEAN_ANOMALY": 163.2077, "EPHEMERIS_TYPE": 0, "CLASSIFICATION_TYPE": "U", "NORAD_CAT_ID": 66638, "ELEMENT_SET_NO": 999, "REV_AT_EPOCH": 475, "BSTAR": 0.001425051, "MEAN_MOTION_DOT": 0.00079468, "MEAN_MOTION_DDOT": 0}, "tle": {"line1": "1 66638U 25271X   25349.91668981  .00079468  00000+0  14251-2 0  9995", "line2": "2 66638  53.1589 171.9592 0000853  55.1081 163.2077 15.49255832  4758"}}, "geometry": {"type": "Point", "coordinates": [-27.871259347362393, 20.042990013223832]}}]}